[{"OBJECT_NAME":"STARLINK-36262","OBJECT_ID":"2025-304K","EPOCH":"2026-03-09T17:00:06.312960","MEAN_MOTION":14.98338183,"ECCENTRICITY":0.00031496,"INCLINATION":70.0018,"RA_OF_ASC_NODE":174.5677,"ARG_OF_PERICENTER":272.8714,"MEAN_ANOMALY":87.2084,"EPHEMERIS_TYPE":0,"CLASSIFICATION_TYPE":"U","NORAD_CAT_ID":67201,"ELEMENT_SET_NO":999,"REV_AT_EPOCH":1388,"BSTAR":0.00040898058,"MEAN_MOTION_DOT":4.791e-5,"MEAN_MOTION_DDOT":0},{"OBJECT_NAME":"COSMOS 2251 DEB","OBJECT_ID":"1993-036NZ","EPOCH":"2026-03-09T21:15:03.836448","MEAN_MOTION":14.91859868,"ECCENTRICITY":0.00323485,"INCLINATION":73.9961,"RA_OF_ASC_NODE":356.9153,"ARG_OF_PERICENTER":157.6141,"MEAN_ANOMALY":263.4728,"EPHEMERIS_TYPE":0,"CLASSIFICATION_TYPE":"U","NORAD_CAT_ID":34327,"ELEMENT_SET_NO":999,"REV_AT_EPOCH":90806,"BSTAR":0.0014341536,"MEAN_MOTION_DOT":0.00014628,"MEAN_MOTION_DDOT":0}]
